{"spkid": "50550065", "covariance": {"data": [["6.206758228220099E-16", "-1.64101148195714E-15", "-7.13842991077818E-15", "-1.97297300041778E-13", "1.842929767499545E-13", "-1.345791225184529E-14"], ["-1.64101148195714E-15", "4.342643134144716E-15", "2.235865658849885E-14", "5.114597991529514E-13", "-4.759608737165669E-13", "4.362260612666057E-14"], ["-7.13842991077818E-15", "2.235865658849885E-14", "1.014791801051855E-10", "3.627620938030643E-11", "7.216236477159943E-11", "4.987501007927657E-12"], ["-1.97297300041778E-13", "5.114597991529514E-13", "3.627620938030643E-11", "2.240541116490676E-10", "-1.578565618325441E-10", "-3.394053225731905E-11"], ["1.842929767499545E-13", "-4.759608737165669E-13", "7.216236477159943E-11", "-1.578565618325441E-10", "2.236533554581861E-10", "3.706691236792814E-11"], ["-1.345791225184529E-14", "4.362260612666057E-14", "4.987501007927657E-12", "-3.394053225731905E-11", "3.706691236792814E-11", "6.0783316743898E-11"]], "elements": [{"units": null, "value": ".6165214537038909", "title": "eccentricity", "sigma": 2.49133663486493e-08, "name": "e", "label": "e"}, {"units": "au", "value": "1.016584999732792", "title": "perihelion distance", "sigma": 6.5898733934308e-08, "name": "q", "label": "q"}, {"units": "TDB", "title": "time of perihelion passage", "value": "2460229.069306958341", "sigma": 1.00736875127823e-05, "name": "tp", "label": "tp"}, {"label": "node", "sigma": 1.49684371812513e-05, "name": "om", "units": "deg", "title": "longitude of the ascending node", "value": "9.032288545012479"}, {"sigma": 1.49550444819862e-05, "name": "w", "value": "20.34039917684842", "title": "argument of perihelion", "units": "deg", "label": "peri"}, {"label": "i", "name": "i", "sigma": 7.7963656112254e-06, "title": "inclination", "value": "19.87499469540077", "units": "deg"}], "labels": ["e", "q", "tp", "node", "peri", "i"], "epoch": "2459611.5"}, "elements": [{"label": "e", "value": ".6160698879253684", "title": "eccentricity", "units": null, "name": "e", "sigma": "2.4848E-8"}, {"name": "a", "sigma": "5.2221E-9", "units": "au", "title": "semi-major axis", "value": "2.649958233983178", "label": "a"}, {"units": "au", "title": "perihelion distance", "value": "1.017398761766254", "name": "q", "sigma": "6.5935E-8", "label": "q"}, {"units": "deg", "title": "inclination; angle with respect to x-y ecliptic plane", "value": "19.86165179512159", "name": "i", "sigma": "7.7904E-6", "label": "i"}, {"sigma": "1.4982E-5", "name": "om", "units": "deg", "value": "9.023145749340054", "title": "longitude of the ascending node", "label": "node"}, {"label": "peri", "sigma": "1.4975E-5", "name": "w", "title": "argument of perihelion", "value": "20.40418752043692", "units": "deg"}, {"title": "mean anomaly", "value": "222.0624670224446", "units": "deg", "sigma": "2.583E-6", "name": "ma", "label": "M"}, {"name": "tp", "sigma": "1.2321E-5", "title": "time of perihelion passage", "value": "2461804.221891496375", "units": "TDB", "label": "tp"}, {"label": "period", "name": "per", "sigma": "4.6575E-6", "value": "1575.63990196968", "title": "sidereal orbital period", "units": "d"}, {"units": "deg/d", "value": ".2284786006942133", "title": "mean motion", "name": "n", "sigma": "6.7537E-10", "label": "n"}, {"name": "ad", "sigma": "8.4393E-9", "title": "aphelion distance", "value": "4.282517706200101", "units": "au", "label": "Q"}], "epoch": "2461200.5"}